[{"OBJECT_NAME":"STARLINK-2506","OBJECT_ID":"2021-036AR","EPOCH":"2026-03-09T06:38:45.414528","MEAN_MOTION":15.06398783,"ECCENTRICITY":0.00014126,"INCLINATION":53.0562,"RA_OF_ASC_NODE":93.4738,"ARG_OF_PERICENTER":92.8622,"MEAN_ANOMALY":267.2529,"EPHEMERIS_TYPE":0,"CLASSIFICATION_TYPE":"U","NORAD_CAT_ID":48315,"ELEMENT_SET_NO":999,"REV_AT_EPOCH":26810,"BSTAR":-8.872372e-6,"MEAN_MOTION_DOT":-4.14e-6,"MEAN_MOTION_DDOT":0},{"OBJECT_NAME":"JILIN-01 KUANFU 02B 5","OBJECT_ID":"2024-169E","EPOCH":"2026-03-09T22:46:28.718400","MEAN_MOTION":15.09244096,"ECCENTRICITY":0.00111722,"INCLINATION":97.556,"RA_OF_ASC_NODE":160.0628,"ARG_OF_PERICENTER":294.0678,"MEAN_ANOMALY":65.9381,"EPHEMERIS_TYPE":0,"CLASSIFICATION_TYPE":"U","NORAD_CAT_ID":61193,"ELEMENT_SET_NO":999,"REV_AT_EPOCH":8086,"BSTAR":0.00034816655,"MEAN_MOTION_DOT":5.486e-5,"MEAN_MOTION_DDOT":0}]
